ONEWEB-0258             
1 48976U 21060K   25159.42730261 -.00000063  00000+0 -19865-3 0  9992
2 48976  87.9033 303.2926 0001911  98.1741 261.9607 13.16595164190410
ONEWEB-0259             
1 48977U 21060L   25159.11697093  .00000006  00000+0 -18090-4 0  9990
2 48977  87.9032 303.3383 0001941 102.8860 257.2488 13.16596165190402
ONEWEB-0260             
1 48978U 21060M   25159.41225030  .00000038  00000+0  65093-4 0  9991
2 48978  87.9030 303.3073 0001301 101.3286 258.7991 13.16596826190424
ONEWEB-0261             
1 48979U 21060N   25159.38218174  .00000091  00000+0  20314-3 0  9994
2 48979  87.9029 303.3145 0001784 113.8664 246.2654 13.16593124190477
ONEWEB-0262             
1 48980U 21060P   25159.36237671  .00000035  00000+0  57198-4 0  9996
2 48980  87.9035 303.2778 0002171 103.1409 256.9965 13.16595027190430
ONEWEB-0263             
1 48981U 21060Q   25159.39403540  .00000109  00000+0  25181-3 0  9998
2 48981  87.9032 303.2973 0002030 110.8151 249.3197 13.16592402190402
ONEWEB-0264             
1 48982U 21060R   25159.43125851 -.00000041  00000+0 -14198-3 0  9993
2 48982  87.9032 303.2955 0001866 101.7318 258.4023 13.16593792190416
ONEWEB-0266             
1 48984U 21060T   25159.37662219  .00000066  00000+0  13901-3 0  9998
2 48984  87.9034 303.2793 0001992  95.5713 264.5645 13.16595791190395
