<?xml version="1.0" encoding="UTF-8"?>
<ndm xmlns:xsi="http://www.w3.org/2001/XMLSchema-instance" xsi:noNamespaceSchemaLocation="https://sanaregistry.org/r/ndmxml_unqualified/ndmxml-2.0.0-master-2.0.xsd">
<omm id="CCSDS_OMM_VERS" version="2.0">
<header><CREATION_DATE/><ORIGINATOR/></header><body><segment><metadata><OBJECT_NAME>ONEWEB-0258</OBJECT_NAME><OBJECT_ID>2021-060K</OBJECT_ID><CENTER_NAME>EARTH</CENTER_NAME><REF_FRAME>TEME</REF_FRAME><TIME_SYSTEM>UTC</TIME_SYSTEM><MEAN_ELEMENT_THEORY>SGP4</MEAN_ELEMENT_THEORY></metadata><data><meanElements><EPOCH>2025-06-08T10:15:18.945504</EPOCH><MEAN_MOTION>13.16595164</MEAN_MOTION><ECCENTRICITY>.0001911</ECCENTRICITY><INCLINATION>87.9033</INCLINATION><RA_OF_ASC_NODE>303.2926</RA_OF_ASC_NODE><ARG_OF_PERICENTER>98.1741</ARG_OF_PERICENTER><MEAN_ANOMALY>261.9607</MEAN_ANOMALY></meanElements><tleParameters><EPHEMERIS_TYPE>0</EPHEMERIS_TYPE><CLASSIFICATION_TYPE>U</CLASSIFICATION_TYPE><NORAD_CAT_ID>48976</NORAD_CAT_ID><ELEMENT_SET_NO>999</ELEMENT_SET_NO><REV_AT_EPOCH>19041</REV_AT_EPOCH><BSTAR>-.19865E-3</BSTAR><MEAN_MOTION_DOT>-.63E-6</MEAN_MOTION_DOT><MEAN_MOTION_DDOT>0</MEAN_MOTION_DDOT></tleParameters></data></segment></body></omm>
<omm id="CCSDS_OMM_VERS" version="2.0">
<header><CREATION_DATE/><ORIGINATOR/></header><body><segment><metadata><OBJECT_NAME>ONEWEB-0259</OBJECT_NAME><OBJECT_ID>2021-060L</OBJECT_ID><CENTER_NAME>EARTH</CENTER_NAME><REF_FRAME>TEME</REF_FRAME><TIME_SYSTEM>UTC</TIME_SYSTEM><MEAN_ELEMENT_THEORY>SGP4</MEAN_ELEMENT_THEORY></metadata><data><meanElements><EPOCH>2025-06-08T02:48:26.288352</EPOCH><MEAN_MOTION>13.16596165</MEAN_MOTION><ECCENTRICITY>.0001941</ECCENTRICITY><INCLINATION>87.9032</INCLINATION><RA_OF_ASC_NODE>303.3383</RA_OF_ASC_NODE><ARG_OF_PERICENTER>102.8860</ARG_OF_PERICENTER><MEAN_ANOMALY>257.2488</MEAN_ANOMALY></meanElements><tleParameters><EPHEMERIS_TYPE>0</EPHEMERIS_TYPE><CLASSIFICATION_TYPE>U</CLASSIFICATION_TYPE><NORAD_CAT_ID>48977</NORAD_CAT_ID><ELEMENT_SET_NO>999</ELEMENT_SET_NO><REV_AT_EPOCH>19040</REV_AT_EPOCH><BSTAR>-.1809E-4</BSTAR><MEAN_MOTION_DOT>.6E-7</MEAN_MOTION_DOT><MEAN_MOTION_DDOT>0</MEAN_MOTION_DDOT></tleParameters></data></segment></body></omm>
<omm id="CCSDS_OMM_VERS" version="2.0">
<header><CREATION_DATE/><ORIGINATOR/></header><body><segment><metadata><OBJECT_NAME>ONEWEB-0260</OBJECT_NAME><OBJECT_ID>2021-060M</OBJECT_ID><CENTER_NAME>EARTH</CENTER_NAME><REF_FRAME>TEME</REF_FRAME><TIME_SYSTEM>UTC</TIME_SYSTEM><MEAN_ELEMENT_THEORY>SGP4</MEAN_ELEMENT_THEORY></metadata><data><meanElements><EPOCH>2025-06-08T09:53:38.425920</EPOCH><MEAN_MOTION>13.16596826</MEAN_MOTION><ECCENTRICITY>.0001301</ECCENTRICITY><INCLINATION>87.9030</INCLINATION><RA_OF_ASC_NODE>303.3073</RA_OF_ASC_NODE><ARG_OF_PERICENTER>101.3286</ARG_OF_PERICENTER><MEAN_ANOMALY>258.7991</MEAN_ANOMALY></meanElements><tleParameters><EPHEMERIS_TYPE>0</EPHEMERIS_TYPE><CLASSIFICATION_TYPE>U</CLASSIFICATION_TYPE><NORAD_CAT_ID>48978</NORAD_CAT_ID><ELEMENT_SET_NO>999</ELEMENT_SET_NO><REV_AT_EPOCH>19042</REV_AT_EPOCH><BSTAR>.65093E-4</BSTAR><MEAN_MOTION_DOT>.38E-6</MEAN_MOTION_DOT><MEAN_MOTION_DDOT>0</MEAN_MOTION_DDOT></tleParameters></data></segment></body></omm>
<omm id="CCSDS_OMM_VERS" version="2.0">
<header><CREATION_DATE/><ORIGINATOR/></header><body><segment><metadata><OBJECT_NAME>ONEWEB-0261</OBJECT_NAME><OBJECT_ID>2021-060N</OBJECT_ID><CENTER_NAME>EARTH</CENTER_NAME><REF_FRAME>TEME</REF_FRAME><TIME_SYSTEM>UTC</TIME_SYSTEM><MEAN_ELEMENT_THEORY>SGP4</MEAN_ELEMENT_THEORY></metadata><data><meanElements><EPOCH>2025-06-08T09:10:20.502336</EPOCH><MEAN_MOTION>13.16593124</MEAN_MOTION><ECCENTRICITY>.0001784</ECCENTRICITY><INCLINATION>87.9029</INCLINATION><RA_OF_ASC_NODE>303.3145</RA_OF_ASC_NODE><ARG_OF_PERICENTER>113.8664</ARG_OF_PERICENTER><MEAN_ANOMALY>246.2654</MEAN_ANOMALY></meanElements><tleParameters><EPHEMERIS_TYPE>0</EPHEMERIS_TYPE><CLASSIFICATION_TYPE>U</CLASSIFICATION_TYPE><NORAD_CAT_ID>48979</NORAD_CAT_ID><ELEMENT_SET_NO>999</ELEMENT_SET_NO><REV_AT_EPOCH>19047</REV_AT_EPOCH><BSTAR>.20314E-3</BSTAR><MEAN_MOTION_DOT>.91E-6</MEAN_MOTION_DOT><MEAN_MOTION_DDOT>0</MEAN_MOTION_DDOT></tleParameters></data></segment></body></omm>
<omm id="CCSDS_OMM_VERS" version="2.0">
<header><CREATION_DATE/><ORIGINATOR/></header><body><segment><metadata><OBJECT_NAME>ONEWEB-0262</OBJECT_NAME><OBJECT_ID>2021-060P</OBJECT_ID><CENTER_NAME>EARTH</CENTER_NAME><REF_FRAME>TEME</REF_FRAME><TIME_SYSTEM>UTC</TIME_SYSTEM><MEAN_ELEMENT_THEORY>SGP4</MEAN_ELEMENT_THEORY></metadata><data><meanElements><EPOCH>2025-06-08T08:41:49.347744</EPOCH><MEAN_MOTION>13.16595027</MEAN_MOTION><ECCENTRICITY>.0002171</ECCENTRICITY><INCLINATION>87.9035</INCLINATION><RA_OF_ASC_NODE>303.2778</RA_OF_ASC_NODE><ARG_OF_PERICENTER>103.1409</ARG_OF_PERICENTER><MEAN_ANOMALY>256.9965</MEAN_ANOMALY></meanElements><tleParameters><EPHEMERIS_TYPE>0</EPHEMERIS_TYPE><CLASSIFICATION_TYPE>U</CLASSIFICATION_TYPE><NORAD_CAT_ID>48980</NORAD_CAT_ID><ELEMENT_SET_NO>999</ELEMENT_SET_NO><REV_AT_EPOCH>19043</REV_AT_EPOCH><BSTAR>.57198E-4</BSTAR><MEAN_MOTION_DOT>.35E-6</MEAN_MOTION_DOT><MEAN_MOTION_DDOT>0</MEAN_MOTION_DDOT></tleParameters></data></segment></body></omm>
<omm id="CCSDS_OMM_VERS" version="2.0">
<header><CREATION_DATE/><ORIGINATOR/></header><body><segment><metadata><OBJECT_NAME>ONEWEB-0263</OBJECT_NAME><OBJECT_ID>2021-060Q</OBJECT_ID><CENTER_NAME>EARTH</CENTER_NAME><REF_FRAME>TEME</REF_FRAME><TIME_SYSTEM>UTC</TIME_SYSTEM><MEAN_ELEMENT_THEORY>SGP4</MEAN_ELEMENT_THEORY></metadata><data><meanElements><EPOCH>2025-06-08T09:27:24.658560</EPOCH><MEAN_MOTION>13.16592402</MEAN_MOTION><ECCENTRICITY>.000203</ECCENTRICITY><INCLINATION>87.9032</INCLINATION><RA_OF_ASC_NODE>303.2973</RA_OF_ASC_NODE><ARG_OF_PERICENTER>110.8151</ARG_OF_PERICENTER><MEAN_ANOMALY>249.3197</MEAN_ANOMALY></meanElements><tleParameters><EPHEMERIS_TYPE>0</EPHEMERIS_TYPE><CLASSIFICATION_TYPE>U</CLASSIFICATION_TYPE><NORAD_CAT_ID>48981</NORAD_CAT_ID><ELEMENT_SET_NO>999</ELEMENT_SET_NO><REV_AT_EPOCH>19040</REV_AT_EPOCH><BSTAR>.25181E-3</BSTAR><MEAN_MOTION_DOT>.109E-5</MEAN_MOTION_DOT><MEAN_MOTION_DDOT>0</MEAN_MOTION_DDOT></tleParameters></data></segment></body></omm>
<omm id="CCSDS_OMM_VERS" version="2.0">
<header><CREATION_DATE/><ORIGINATOR/></header><body><segment><metadata><OBJECT_NAME>ONEWEB-0264</OBJECT_NAME><OBJECT_ID>2021-060R</OBJECT_ID><CENTER_NAME>EARTH</CENTER_NAME><REF_FRAME>TEME</REF_FRAME><TIME_SYSTEM>UTC</TIME_SYSTEM><MEAN_ELEMENT_THEORY>SGP4</MEAN_ELEMENT_THEORY></metadata><data><meanElements><EPOCH>2025-06-08T10:21:00.735264</EPOCH><MEAN_MOTION>13.16593792</MEAN_MOTION><ECCENTRICITY>.0001866</ECCENTRICITY><INCLINATION>87.9032</INCLINATION><RA_OF_ASC_NODE>303.2955</RA_OF_ASC_NODE><ARG_OF_PERICENTER>101.7318</ARG_OF_PERICENTER><MEAN_ANOMALY>258.4023</MEAN_ANOMALY></meanElements><tleParameters><EPHEMERIS_TYPE>0</EPHEMERIS_TYPE><CLASSIFICATION_TYPE>U</CLASSIFICATION_TYPE><NORAD_CAT_ID>48982</NORAD_CAT_ID><ELEMENT_SET_NO>999</ELEMENT_SET_NO><REV_AT_EPOCH>19041</REV_AT_EPOCH><BSTAR>-.14198E-3</BSTAR><MEAN_MOTION_DOT>-.41E-6</MEAN_MOTION_DOT><MEAN_MOTION_DDOT>0</MEAN_MOTION_DDOT></tleParameters></data></segment></body></omm>
<omm id="CCSDS_OMM_VERS" version="2.0">
<header><CREATION_DATE/><ORIGINATOR/></header><body><segment><metadata><OBJECT_NAME>ONEWEB-0266</OBJECT_NAME><OBJECT_ID>2021-060T</OBJECT_ID><CENTER_NAME>EARTH</CENTER_NAME><REF_FRAME>TEME</REF_FRAME><TIME_SYSTEM>UTC</TIME_SYSTEM><MEAN_ELEMENT_THEORY>SGP4</MEAN_ELEMENT_THEORY></metadata><data><meanElements><EPOCH>2025-06-08T09:02:20.157216</EPOCH><MEAN_MOTION>13.16595791</MEAN_MOTION><ECCENTRICITY>.0001992</ECCENTRICITY><INCLINATION>87.9034</INCLINATION><RA_OF_ASC_NODE>303.2793</RA_OF_ASC_NODE><ARG_OF_PERICENTER>95.5713</ARG_OF_PERICENTER><MEAN_ANOMALY>264.5645</MEAN_ANOMALY></meanElements><tleParameters><EPHEMERIS_TYPE>0</EPHEMERIS_TYPE><CLASSIFICATION_TYPE>U</CLASSIFICATION_TYPE><NORAD_CAT_ID>48984</NORAD_CAT_ID><ELEMENT_SET_NO>999</ELEMENT_SET_NO><REV_AT_EPOCH>19039</REV_AT_EPOCH><BSTAR>.13901E-3</BSTAR><MEAN_MOTION_DOT>.66E-6</MEAN_MOTION_DOT><MEAN_MOTION_DDOT>0</MEAN_MOTION_DDOT></tleParameters></data></segment></body></omm>

</ndm>
